{
  "type": "FeatureCollection",
  "features": [
    {
      "type": "Feature",
      "properties": {
        "norad_id": 29816,
        "name": "FENGYUN 1C DEB",
        "group": "fengyun-1c-debris",
        "lat": 48.25664796041982,
        "lon": 47.50620210577511,
        "alt_km": 576.93681390241,
        "timestamp": "2025-12-22T16:55:17.734601+00:00",
        "meta_object_name": "FENGYUN 1C DEB",
        "meta_object_id": "1999-025DJ",
        "meta_epoch": "2025-12-22T05:14:26.654784",
        "meta_mean_motion": 14.44378005,
        "meta_eccentricity": 0.02379109,
        "meta_inclination": 98.9921,
        "meta_ra_of_asc_node": 216.7698,
        "meta_arg_of_pericenter": 148.8791,
        "meta_mean_anomaly": 333.4578,
        "meta_ephemeris_type": 0,
        "meta_classification_type": "U",
        "meta_norad_cat_id": 29816,
        "meta_element_set_no": 999,
        "meta_rev_at_epoch": 98324,
        "meta_bstar": 0.00090493084,
        "meta_mean_motion_dot": 4.354e-05,
        "meta_mean_motion_ddot": 0,
        "tle_line1": "1 29816U 99025DJ  25356.21836406  .00004354  00000+0  90493-3 0  9995",
        "tle_line2": "2 29816  98.9921 216.7698 0237910 148.8791 333.4578 14.44378005983240"
      },
      "geometry": {
        "type": "Point",
        "coordinates": [
          47.50620210577511,
          48.25664796041982
        ]
      }
    },
    {
      "type": "Feature",
      "properties": {
        "norad_id": 29817,
        "name": "FENGYUN 1C DEB",
        "group": "fengyun-1c-debris",
        "lat": 71.18255333502202,
        "lon": -40.73912196668196,
        "alt_km": 837.282611561719,
        "timestamp": "2025-12-22T16:55:17.734611+00:00",
        "meta_object_name": "FENGYUN 1C DEB",
        "meta_object_id": "1999-025DK",
        "meta_epoch": "2025-12-22T04:58:36.278976",
        "meta_mean_motion": 14.14263993,
        "meta_eccentricity": 0.00117666,
        "meta_inclination": 98.5581,
        "meta_ra_of_asc_node": 345.0089,
        "meta_arg_of_pericenter": 348.8559,
        "meta_mean_anomaly": 71.6716,
        "meta_ephemeris_type": 0,
        "meta_classification_type": "U",
        "meta_norad_cat_id": 29817,
        "meta_element_set_no": 999,
        "meta_rev_at_epoch": 97529,
        "meta_bstar": 0.00029743572,
        "meta_mean_motion_dot": 5.26e-06,
        "meta_mean_motion_ddot": 0,
        "tle_line1": "1 29817U 99025DK  25356.20736434  .00000526  00000+0  29744-3 0  9993",
        "tle_line2": "2 29817  98.5581 345.0089 0011766 348.8559  71.6716 14.14263993975299"
      },
      "geometry": {
        "type": "Point",
        "coordinates": [
          -40.73912196668196,
          71.18255333502202
        ]
      }
    },
    {
      "type": "Feature",
      "properties": {
        "norad_id": 29818,
        "name": "FENGYUN 1C DEB",
        "group": "fengyun-1c-debris",
        "lat": 1.096669546087835,
        "lon": 53.79916420330301,
        "alt_km": 964.2495327604329,
        "timestamp": "2025-12-22T16:55:17.734621+00:00",
        "meta_object_name": "FENGYUN 1C DEB",
        "meta_object_id": "1999-025DL",
        "meta_epoch": "2025-12-22T04:41:30.493248",
        "meta_mean_motion": 14.04507878,
        "meta_eccentricity": 0.01147535,
        "meta_inclination": 98.7207,
        "meta_ra_of_asc_node": 233.1413,
        "meta_arg_of_pericenter": 359.3512,
        "meta_mean_anomaly": 124.3481,
        "meta_ephemeris_type": 0,
        "meta_classification_type": "U",
        "meta_norad_cat_id": 29818,
        "meta_element_set_no": 999,
        "meta_rev_at_epoch": 96942,
        "meta_bstar": 0.00031623389,
        "meta_mean_motion_dot": 4.93e-06,
        "meta_mean_motion_ddot": 0,
        "tle_line1": "1 29818U 99025DL  25356.19549182  .00000493  00000+0  31623-3 0  9996",
        "tle_line2": "2 29818  98.7207 233.1413 0114753 359.3512 124.3481 14.04507878969426"
      },
      "geometry": {
        "type": "Point",
        "coordinates": [
          53.79916420330301,
          1.096669546087835
        ]
      }
    },
    {
      "type": "Feature",
      "properties": {
        "norad_id": 29819,
        "name": "FENGYUN 1C DEB",
        "group": "fengyun-1c-debris",
        "lat": -28.79276690540371,
        "lon": 155.1895054537817,
        "alt_km": 1028.7745305566714,
        "timestamp": "2025-12-22T16:55:17.734631+00:00",
        "meta_object_name": "FENGYUN 1C DEB",
        "meta_object_id": "1999-025DM",
        "meta_epoch": "2025-12-22T05:42:51.825312",
        "meta_mean_motion": 14.02210772,
        "meta_eccentricity": 0.0191502,
        "meta_inclination": 98.734,
        "meta_ra_of_asc_node": 339.5882,
        "meta_arg_of_pericenter": 40.6126,
        "meta_mean_anomaly": 332.1266,
        "meta_ephemeris_type": 0,
        "meta_classification_type": "U",
        "meta_norad_cat_id": 29819,
        "meta_element_set_no": 999,
        "meta_rev_at_epoch": 96753,
        "meta_bstar": 0.00034871033,
        "meta_mean_motion_dot": 5.86e-06,
        "meta_mean_motion_ddot": 0,
        "tle_line1": "1 29819U 99025DM  25356.23809983  .00000586  00000+0  34871-3 0  9991",
        "tle_line2": "2 29819  98.7340 339.5882 0191502  40.6126 332.1266 14.02210772967536"
      },
      "geometry": {
        "type": "Point",
        "coordinates": [
          155.1895054537817,
          -28.79276690540371
        ]
      }
    },
    {
      "type": "Feature",
      "properties": {
        "norad_id": 29820,
        "name": "FENGYUN 1C DEB",
        "group": "fengyun-1c-debris",
        "lat": -22.04089851606972,
        "lon": 179.8453341018986,
        "alt_km": 837.8637654967933,
        "timestamp": "2025-12-22T16:55:17.734641+00:00",
        "meta_object_name": "FENGYUN 1C DEB",
        "meta_object_id": "1999-025DN",
        "meta_epoch": "2025-12-21T23:07:17.504256",
        "meta_mean_motion": 14.02623839,
        "meta_eccentricity": 0.00723801,
        "meta_inclination": 98.8325,
        "meta_ra_of_asc_node": 2.7353,
        "meta_arg_of_pericenter": 211.8741,
        "meta_mean_anomaly": 207.4897,
        "meta_ephemeris_type": 0,
        "meta_classification_type": "U",
        "meta_norad_cat_id": 29820,
        "meta_element_set_no": 999,
        "meta_rev_at_epoch": 96689,
        "meta_bstar": 0.00067026978,
        "meta_mean_motion_dot": 1.015e-05,
        "meta_mean_motion_ddot": 0,
        "tle_line1": "1 29820U 99025DN  25355.96339704  .00001015  00000+0  67027-3 0  9998",
        "tle_line2": "2 29820  98.8325   2.7353 0072380 211.8741 207.4897 14.02623839966895"
      },
      "geometry": {
        "type": "Point",
        "coordinates": [
          179.8453341018986,
          -22.04089851606972
        ]
      }
    },
    {
      "type": "Feature",
      "properties": {
        "norad_id": 29821,
        "name": "FENGYUN 1C DEB",
        "group": "fengyun-1c-debris",
        "lat": -19.21224793665683,
        "lon": -131.51575752910418,
        "alt_km": 929.857058297016,
        "timestamp": "2025-12-22T16:55:17.734651+00:00",
        "meta_object_name": "FENGYUN 1C DEB",
        "meta_object_id": "1999-025DP",
        "meta_epoch": "2025-12-21T22:07:07.569696",
        "meta_mean_motion": 14.11106754,
        "meta_eccentricity": 0.03762246,
        "meta_inclination": 98.8723,
        "meta_ra_of_asc_node": 50.8285,
        "meta_arg_of_pericenter": 94.7468,
        "meta_mean_anomaly": 82.7307,
        "meta_ephemeris_type": 0,
        "meta_classification_type": "U",
        "meta_norad_cat_id": 29821,
        "meta_element_set_no": 999,
        "meta_rev_at_epoch": 96640,
        "meta_bstar": 0.00050844612,
        "meta_mean_motion_dot": 1.736e-05,
        "meta_mean_motion_ddot": 0,
        "tle_line1": "1 29821U 99025DP  25355.92161539  .00001736  00000+0  50845-3 0  9994",
        "tle_line2": "2 29821  98.8723  50.8285 0376224  94.7468  82.7307 14.11106754966403"
      },
      "geometry": {
        "type": "Point",
        "coordinates": [
          -131.51575752910418,
          -19.21224793665683
        ]
      }
    },
    {
      "type": "Feature",
      "properties": {
        "norad_id": 29827,
        "name": "FENGYUN 1C DEB",
        "group": "fengyun-1c-debris",
        "lat": -17.609498808978636,
        "lon": 164.89866411231048,
        "alt_km": 826.0649889939214,
        "timestamp": "2025-12-22T16:55:17.734661+00:00",
        "meta_object_name": "FENGYUN 1C DEB",
        "meta_object_id": "1999-025DV",
        "meta_epoch": "2025-12-20T22:03:03.284928",
        "meta_mean_motion": 14.21698822,
        "meta_eccentricity": 0.0024686,
        "meta_inclination": 98.6027,
        "meta_ra_of_asc_node": 345.9115,
        "meta_arg_of_pericenter": 298.0313,
        "meta_mean_anomaly": 122.742,
        "meta_ephemeris_type": 0,
        "meta_classification_type": "U",
        "meta_norad_cat_id": 29827,
        "meta_element_set_no": 999,
        "meta_rev_at_epoch": 97979,
        "meta_bstar": 0.00024339,
        "meta_mean_motion_dot": 4.93e-06,
        "meta_mean_motion_ddot": 0,
        "tle_line1": "1 29827U 99025DV  25354.91878802  .00000493  00000+0  24339-3 0  9994",
        "tle_line2": "2 29827  98.6027 345.9115 0024686 298.0313 122.7420 14.21698822979794"
      },
      "geometry": {
        "type": "Point",
        "coordinates": [
          164.89866411231048,
          -17.609498808978636
        ]
      }
    }
  ]
}